TJS-1
1 40892U 15046A   26278.84641929 -.00000173  00000+0  00000+0 0  9997
2 40892   0.6027  83.6551 0002916  99.5543 291.0318  1.00269832 40684
TJS-2
1 41911U 17001A   26278.90023951 -.00000023  00000+0  00000+0 0  9993
2 41911   1.1127  83.5607 0002178 167.9437 153.7170  1.00270947 35826
TJS-3
1 43874U 18110A   26278.76236411  .00000005  00000+0  00000+0 0  9995
2 43874   2.8235  79.0391 0003128  29.0202 356.2716  1.00269342 28531
TJS-4
1 44637U 19070A   26278.97487987 -.00000187  00000+0  00000+0 0  9990
2 44637   0.0787 289.2111 0004904  19.2362 140.6627  1.00271373 25649
TJS-5
1 44978U 20002A   26278.97964656 -.00000360  00000+0  00000+0 0  9991
2 44978   0.2734  82.7396 0006486 355.6960  36.4136  1.00272843 24829
TJS-6
1 47613U 21010A   26278.77985899  .00000025  00000+0  00000+0 0  9997
2 47613   0.0336 123.0603 0003638  79.9351 270.7234  1.00269650 20921
TJS-7
1 49115U 21077A   26278.93863302 -.00000142  00000+0  00000+0 0  9992
2 49115   0.0771 257.0746 0001850  78.3936 277.6268  1.00271345 10662
TJS-9
1 50574U 21135A   26278.98553992 -.00000316  00000+0  00000+0 0  9997
2 50574   0.0663  86.6428 0005742 242.4077 177.6385  1.00270669 17541
TJS-10
1 58204U 23169A   26278.75813147 -.00000265  00000+0  00000+0 0  9993
2 58204   2.8231  79.0497 0004437 140.6061 160.1718  1.00272330 10642
TJS-11
1 59020U 24037A   26277.55340825 -.00000379  00000+0  00000+0 0  9996
2 59020   4.0656 328.5366 0003670 291.9446  64.5037  1.00267567  9674
TJS-12
1 62374U 24246A   26278.74631221 -.00000249  00000+0  00000+0 0  9995
2 62374   0.4594 316.2677 0000720 185.0955 288.2717  1.00270730  6674
TJS-14
1 62804U 25017A   26278.96196648  .00000097  00000+0  00000+0 0  9993
2 62804   0.5540 307.8252 0003914 327.8129 103.6862  1.00270454  6388
TJS-15
1 63157U 25045A   26278.76799843 -.00000235  00000+0  00000+0 0  9995
2 63157   0.4880  84.3207 0001596 202.4086  92.9076  1.00273052  5863
TJS-16
1 63397U 25064A   26278.76221655 -.00000120  00000+0  00000+0 0  9996
2 63397   1.3772  80.4497 0002393 227.3642 141.7234  1.00271175  5501
TJS-17
1 63524U 25073A   26278.74393851 -.00000310  00000+0  00000+0 0  9995
2 63524   1.3435  81.4840 0021838  97.4480 253.3677  0.99555699  5394
TJS-19
1 63924U 25097A   26278.78249315 -.00000296  00000+0  00000+0 0  9997
2 63924   3.1127 319.4530 0006771 275.6700 202.2885  1.00271670  5256
TJS-20
1 66142U 25238A   26278.87591052  .00000000  00000+0  00000+0 0  9999
2 66142   5.2309 299.1959 0003322 267.9598 185.1584  1.00274603  3446
TJS-22
1 66990U 25290A   26278.90023951 -.00000026  00000+0  00000+0 0  9999
2 66990   1.2676 288.8277 0004829 330.1948 146.1259  1.00270871  3138
TJS-23
1 67226U 25306A   26278.29804960 -.00000007  00000+0  00000+0 0  9998
2 67226   5.3453 296.9813 0004381 273.5077  86.2638  1.00271605  2995
TJS-24
1 69235U 26116A   26278.86672003 -.00000249  00000+0  00000+0 0  9992
2 69235   0.2884  87.3867 0002043 185.3165 144.1970  1.00270983  1339
TJS-25
1 69474U 26129A   26278.72885399 -.00000391  00000+0  00000+0 0  9998
2 69474   5.8606 330.7109 0005281 288.7282 137.5994  1.00274287  1171
TJS-26A
1 69674U 26144A   26278.87039417 -.00000373  00000+0  00000+0 0  9995
2 69674   6.8325 323.2208 0006843 342.7024 129.4940  1.00274544  1053
