TJS-1
1 40892U 15046A   26277.53723421 -.00000171  00000+0  00000+0 0  9998
2 40892   0.5991  83.6611 0002960  98.6335 179.3580  1.00269924 40667
TJS-2
1 41911U 17001A   26277.48677403 -.00000021  00000+0  00000+0 0  9990
2 41911   1.1087  83.5804 0002230 167.4476   3.9571  1.00270636 35812
TJS-3
1 43874U 18110A   26274.77321470  .00000017  00000+0  00000+0 0  9995
2 43874   2.8122  79.0873 0003228  30.6222 354.6367  1.00268386 28498
TJS-4
1 44637U 19070A   26277.54934003 -.00000185  00000+0  00000+0 0  9996
2 44637   0.0821 288.3763 0004858  19.9763 346.1610  1.00271276 25637
TJS-5
1 44978U 20002A   26275.86793676 -.00000350  00000+0  00000+0 0  9997
2 44978   0.2637  82.6298 0006587 353.8984 355.0333  1.00269214 24781
TJS-6
1 47613U 21010A   26277.42557944  .00000028  00000+0  00000+0 0  9997
2 47613   0.0296 129.1966 0003611  72.7527 142.9054  1.00269351 20908
TJS-7
1 49115U 21077A   26277.37061287 -.00000139  00000+0  00000+0 0  9997
2 49115   0.0816 257.5191 0001833  78.7838  70.7615  1.00271514 10641
TJS-9
1 50574U 21135A   26277.57796490 -.00000314  00000+0  00000+0 0  9991
2 50574   0.0628  86.4193 0005698 243.3758  28.7835  1.00271306 17528
TJS-10
1 58204U 23169A   26274.77875545 -.00000253  00000+0  00000+0 0  9998
2 58204   2.8119  79.0979 0004510 139.5425 164.6715  1.00273547 10608
TJS-11
1 59020U 24037A   26277.55340825 -.00000379  00000+0  00000+0 0  9996
2 59020   4.0656 328.5366 0003670 291.9446  64.5037  1.00267567  9674
TJS-12
1 62374U 24246A   26277.53646608 -.00000246  00000+0  00000+0 0  9993
2 62374   0.4618 315.9976 0000733 187.6270 209.2767  1.00270987  6662
TJS-14
1 62804U 25017A   26277.10879168  .00000101  00000+0  00000+0 0  9999
2 62804   0.5579 307.4818 0003947 327.4987 155.3855  1.00269565  6363
TJS-15
1 63157U 25045A   26276.81382571 -.00000230  00000+0  00000+0 0  9990
2 63157   0.4826  84.3437 0001590 200.6968 109.1565  1.00273461  5847
TJS-16
1 63397U 25064A   26274.69426394 -.00000107  00000+0  00000+0 0  9996
2 63397   1.3657  80.4832 0002278 225.8394 114.7497  1.00271193  5450
TJS-17
1 63524U 25073A   26274.78026909 -.00000238  00000+0  00000+0 0  9991
2 63524   1.3322  81.5227 0021951  97.1854 272.9778  0.99556086  5364
TJS-19
1 63924U 25097A   26276.82082830 -.00000290  00000+0  00000+0 0  9991
2 63924   3.1161 319.4068 0006796 275.0971 214.7730  1.00272251  5232
TJS-20
1 66142U 25238A   26277.24280986  .00000006  00000+0  00000+0 0  9996
2 66142   5.2348 299.1986 0003352 266.5737 317.0010  1.00274036  3420
TJS-22
1 66990U 25290A   26277.48677394 -.00000023  00000+0  00000+0 0  9994
2 66990   1.2714 288.7850 0004902 329.6926 356.4347  1.00270546  3119
TJS-23
1 67226U 25306A   26276.30358105  .00000002  00000+0  00000+0 0  9997
2 67226   5.3496 296.9892 0004342 271.9946  87.7968  1.00271139  2975
TJS-24
1 69235U 26116A   26277.48178479 -.00000246  00000+0  00000+0 0  9994
2 69235   0.2844  87.4396 0002050 184.2396   5.2819  1.00271321  1320
TJS-25
1 69474U 26129A   26277.54261280 -.00000386  00000+0  00000+0 0  9998
2 69474   5.8621 330.7026 0005249 287.9492  70.1589  1.00274855  1155
TJS-26A
1 69674U 26144A   26277.54670769 -.00000368  00000+0  00000+0 0  9993
2 69674   6.8347 323.2188 0006799 342.3087  12.0438  1.00275135  1033
